[{"OBJECT_NAME":"ONEWEB-0117","OBJECT_ID":"2020-100F","EPOCH":"2026-03-09T21:14:27.076704","MEAN_MOTION":13.12443112,"ECCENTRICITY":0.00018127,"INCLINATION":87.9004,"RA_OF_ASC_NODE":10.3579,"ARG_OF_PERICENTER":80.3179,"MEAN_ANOMALY":279.8154,"EPHEMERIS_TYPE":0,"CLASSIFICATION_TYPE":"U","NORAD_CAT_ID":47263,"ELEMENT_SET_NO":999,"REV_AT_EPOCH":25150,"BSTAR":0.00068250298,"MEAN_MOTION_DOT":2.58e-6,"MEAN_MOTION_DDOT":0},{"OBJECT_NAME":"SL-14 DEB","OBJECT_ID":"1991-056CB","EPOCH":"2026-03-09T10:11:26.778336","MEAN_MOTION":13.13032423,"ECCENTRICITY":0.00465967,"INCLINATION":82.5756,"RA_OF_ASC_NODE":228.2318,"ARG_OF_PERICENTER":220.5966,"MEAN_ANOMALY":139.1677,"EPHEMERIS_TYPE":0,"CLASSIFICATION_TYPE":"U","NORAD_CAT_ID":45337,"ELEMENT_SET_NO":999,"REV_AT_EPOCH":28826,"BSTAR":0.0026958126,"MEAN_MOTION_DOT":9.96e-6,"MEAN_MOTION_DDOT":0}]
